start=new Date('2023-06-15T00:00:00.000Z').valueOf();
sats=[{"DECAY_DATE":null,"GP_ID":"233923177","OBJECT_ID":"2022-049BA","CENTER_NAME":"EARTH","TLE_LINE1":"1 52499U 22049BA  23165.58164676  .00000134  00000-0  26496-4 0  9995","PERIOD":"95.438","TIME_SYSTEM":"UTC","OBJECT_NAME":"STARLINK-3894","PERIAPSIS":"539.102","SITE":"AFETR","RA_OF_ASC_NODE":"214.2882","REF_FRAME":"TEME","EPHEMERIS_TYPE":"0","CLASSIFICATION_TYPE":"U","ELEMENT_SET_NO":"999","LAUNCH_DATE":"2022-05-06","OBJECT_TYPE":"PAYLOAD","INCLINATION":"53.2151","RCS_SIZE":"LARGE","NORAD_CAT_ID":"52499","REV_AT_EPOCH":"6172","COUNTRY_CODE":"US","MEAN_MOTION":"15.08839930","FILE":"3933186","APOAPSIS":"540.390","ARG_OF_PERICENTER":"83.0466","EPOCH":"2023-06-14T13:57:34.280064","MEAN_ANOMALY":"277.0632","MEAN_MOTION_DDOT":"0.0000000000000","BSTAR":"0.00002649600000","ECCENTRICITY":"0.00009310","MEAN_MOTION_DOT":"0.00000134","SEMIMAJOR_AXIS":"6917.881","TLE_LINE2":"2 52499  53.2151 214.2882 0000931  83.0466 277.0632 15.08839930 61724","MEAN_ELEMENT_THEORY":"SGP4"},{"RCS_SIZE":"LARGE","NORAD_CAT_ID":"52500","REV_AT_EPOCH":"6173","COUNTRY_CODE":"US","MEAN_MOTION":"15.08838916","FILE":"3933215","APOAPSIS":"540.465","ARG_OF_PERICENTER":"87.5324","EPOCH":"2023-06-14T19:43:20.578944","MEAN_ANOMALY":"272.5787","MEAN_MOTION_DDOT":"0.0000000000000","BSTAR":"0.00008980900000","ECCENTRICITY":"0.00010350","MEAN_MOTION_DOT":"0.00001142","SEMIMAJOR_AXIS":"6917.884","TLE_LINE2":"2 52500  53.2146 203.2138 0001035  87.5324 272.5787 15.08838916 61736","MEAN_ELEMENT_THEORY":"SGP4","DECAY_DATE":null,"GP_ID":"233946511","OBJECT_ID":"2022-049BB","CENTER_NAME":"EARTH","TLE_LINE1":"1 52500U 22049BB  23165.82176596  .00001142  00000-0  89809-4 0  9996","PERIOD":"95.438","TIME_SYSTEM":"UTC","OBJECT_NAME":"STARLINK-3866","PERIAPSIS":"539.033","RA_OF_ASC_NODE":"203.2138","SITE":"AFETR","REF_FRAME":"TEME","EPHEMERIS_TYPE":"0","ELEMENT_SET_NO":"999","CLASSIFICATION_TYPE":"U","LAUNCH_DATE":"2022-05-06","INCLINATION":"53.2146","OBJECT_TYPE":"PAYLOAD"},{"SITE":"AFETR","RA_OF_ASC_NODE":"212.9973","PERIAPSIS":"539.211","OBJECT_NAME":"STARLINK-3907","TIME_SYSTEM":"UTC","LAUNCH_DATE":"2022-05-06","OBJECT_TYPE":"PAYLOAD","INCLINATION":"53.2158","ELEMENT_SET_NO":"999","CLASSIFICATION_TYPE":"U","EPHEMERIS_TYPE":"0","REF_FRAME":"TEME","PERIOD":"95.437","TLE_LINE1":"1 52501U 22049BC  23165.82449758 -.00000377  00000-0 -55898-5 0  9993","CENTER_NAME":"EARTH","GP_ID":"233947262","OBJECT_ID":"2022-049BC","DECAY_DATE":null,"MEAN_MOTION_DDOT":"0.0000000000000","MEAN_ANOMALY":"272.6349","MEAN_ELEMENT_THEORY":"SGP4","TLE_LINE2":"2 52501  53.2158 212.9973 0000763  87.4730 272.6349 15.08842265 61604","SEMIMAJOR_AXIS":"6917.873","MEAN_MOTION_DOT":"-0.00000377","ECCENTRICITY":"0.00007630","BSTAR":"-0.00000558980000","REV_AT_EPOCH":"6160","NORAD_CAT_ID":"52501","RCS_SIZE":"LARGE","EPOCH":"2023-06-14T19:47:16.590912","ARG_OF_PERICENTER":"87.4730","FILE":"3933215","APOAPSIS":"540.266","MEAN_MOTION":"15.08842265","COUNTRY_CODE":"US"},{"DECAY_DATE":null,"CENTER_NAME":"EARTH","GP_ID":"233947513","OBJECT_ID":"2022-049BD","TLE_LINE1":"1 52502U 22049BD  23165.81808335 -.00001396  00000-0 -69679-4 0  9996","PERIOD":"95.438","REF_FRAME":"TEME","EPHEMERIS_TYPE":"0","ELEMENT_SET_NO":"999","CLASSIFICATION_TYPE":"U","OBJECT_TYPE":"PAYLOAD","LAUNCH_DATE":"2022-05-06","INCLINATION":"53.2143","OBJECT_NAME":"STARLINK-3912","TIME_SYSTEM":"UTC","PERIAPSIS":"539.049","RA_OF_ASC_NODE":"203.2579","SITE":"AFETR","COUNTRY_CODE":"US","APOAPSIS":"540.477","FILE":"3933215","MEAN_MOTION":"15.08834368","EPOCH":"2023-06-14T19:38:02.401440","ARG_OF_PERICENTER":"120.0881","NORAD_CAT_ID":"52502","RCS_SIZE":"LARGE","REV_AT_EPOCH":"6173","ECCENTRICITY":"0.00010320","BSTAR":"-0.00006967900000","SEMIMAJOR_AXIS":"6917.898","MEAN_MOTION_DOT":"-0.00001396","MEAN_ELEMENT_THEORY":"SGP4","TLE_LINE2":"2 52502  53.2143 203.2579 0001032 120.0881 240.0214 15.08834368 61734","MEAN_ANOMALY":"240.0214","MEAN_MOTION_DDOT":"0.0000000000000"},{"ARG_OF_PERICENTER":"77.8862","EPOCH":"2023-06-14T19:44:43.575648","MEAN_MOTION":"15.08840486","FILE":"3933215","APOAPSIS":"540.423","COUNTRY_CODE":"US","REV_AT_EPOCH":"6173","NORAD_CAT_ID":"52503","RCS_SIZE":"LARGE","TLE_LINE2":"2 52503  53.2155 203.2573 0000981  77.8862 282.2240 15.08840486 61737","MEAN_ELEMENT_THEORY":"SGP4","MEAN_MOTION_DOT":"0.00000593","SEMIMAJOR_AXIS":"6917.879","BSTAR":"0.00005536300000","ECCENTRICITY":"0.00009810","MEAN_MOTION_DDOT":"0.0000000000000","MEAN_ANOMALY":"282.2240","PERIOD":"95.438","TLE_LINE1":"1 52503U 22049BE  23165.82272657  .00000593  00000-0  55363-4 0  9991","GP_ID":"233948263","OBJECT_ID":"2022-049BE","CENTER_NAME":"EARTH","DECAY_DATE":null,"INCLINATION":"53.2155","LAUNCH_DATE":"2022-05-06","OBJECT_TYPE":"PAYLOAD","CLASSIFICATION_TYPE":"U","ELEMENT_SET_NO":"999","EPHEMERIS_TYPE":"0","REF_FRAME":"TEME","RA_OF_ASC_NODE":"203.2573","SITE":"AFETR","PERIAPSIS":"539.065","TIME_SYSTEM":"UTC","OBJECT_NAME":"STARLINK-3861"},{"PERIOD":"95.438","TLE_LINE1":"1 52533U 22051A   23165.35718477  .00002182  00000-0  15516-3 0  9991","CENTER_NAME":"EARTH","GP_ID":"233915138","OBJECT_ID":"2022-051A","DECAY_DATE":null,"SITE":"AFWTR","RA_OF_ASC_NODE":"295.4428","PERIAPSIS":"538.995","OBJECT_NAME":"STARLINK-3951","TIME_SYSTEM":"UTC","INCLINATION":"53.2166","LAUNCH_DATE":"2022-05-13","OBJECT_TYPE":"PAYLOAD","CLASSIFICATION_TYPE":"U","ELEMENT_SET_NO":"999","EPHEMERIS_TYPE":"0","REF_FRAME":"TEME","REV_AT_EPOCH":"6057","NORAD_CAT_ID":"52533","RCS_SIZE":"LARGE","EPOCH":"2023-06-14T08:34:20.764128","ARG_OF_PERICENTER":"66.1343","FILE":"3932965","APOAPSIS":"540.493","MEAN_MOTION":"15.08840472","COUNTRY_CODE":"US","MEAN_MOTION_DDOT":"0.0000000000000","MEAN_ANOMALY":"293.9763","MEAN_ELEMENT_THEORY":"SGP4","TLE_LINE2":"2 52533  53.2166 295.4428 0001083  66.1343 293.9763 15.08840472 60578","SEMIMAJOR_AXIS":"6917.879","MEAN_MOTION_DOT":"0.00002182","ECCENTRICITY":"0.00010830","BSTAR":"0.00015516000000"},{"PERIAPSIS":"539.029","TIME_SYSTEM":"UTC","OBJECT_NAME":"STARLINK-3952","RA_OF_ASC_NODE":"295.3316","SITE":"AFWTR","EPHEMERIS_TYPE":"0","REF_FRAME":"TEME","OBJECT_TYPE":"PAYLOAD","LAUNCH_DATE":"2022-05-13","INCLINATION":"53.2183","ELEMENT_SET_NO":"999","CLASSIFICATION_TYPE":"U","GP_ID":"233923232","OBJECT_ID":"2022-051B","CENTER_NAME":"EARTH","DECAY_DATE":null,"PERIOD":"95.438","TLE_LINE1":"1 52534U 22051B   23165.34981093  .00000858  00000-0  71998-4 0  9992","MEAN_MOTION_DDOT":"0.0000000000000","MEAN_ANOMALY":"281.6073","BSTAR":"0.00007199800000","ECCENTRICITY":"0.00010510","TLE_LINE2":"2 52534  53.2183 295.3316 0001051  78.5037 281.6073 15.08836656 60640","MEAN_ELEMENT_THEORY":"SGP4","MEAN_MOTION_DOT":"0.00000858","SEMIMAJOR_AXIS":"6917.891","REV_AT_EPOCH":"6064","NORAD_CAT_ID":"52534","RCS_SIZE":"LARGE","MEAN_MOTION":"15.08836656","FILE":"3933190","APOAPSIS":"540.483","COUNTRY_CODE":"US","ARG_OF_PERICENTER":"78.5037","EPOCH":"2023-06-14T08:23:43.664352"},{"MEAN_MOTION_DOT":"0.00002399","SEMIMAJOR_AXIS":"6917.876","TLE_LINE2":"2 52535  53.2187 293.5625 0001301  95.8596 264.2545 15.08841463 60630","MEAN_ELEMENT_THEORY":"SGP4","BSTAR":"0.00016875000000","ECCENTRICITY":"0.00013010","MEAN_ANOMALY":"264.2545","MEAN_MOTION_DDOT":"0.0000000000000","ARG_OF_PERICENTER":"95.8596","EPOCH":"2023-06-14T17:50:44.284704","COUNTRY_CODE":"US","MEAN_MOTION":"15.08841463","FILE":"3933215","APOAPSIS":"540.641","NORAD_CAT_ID":"52535","RCS_SIZE":"LARGE","REV_AT_EPOCH":"6063","CLASSIFICATION_TYPE":"U","ELEMENT_SET_NO":"999","LAUNCH_DATE":"2022-05-13","OBJECT_TYPE":"PAYLOAD","INCLINATION":"53.2187","REF_FRAME":"TEME","EPHEMERIS_TYPE":"0","SITE":"AFWTR","RA_OF_ASC_NODE":"293.5625","TIME_SYSTEM":"UTC","OBJECT_NAME":"STARLINK-3958","PERIAPSIS":"538.841","TLE_LINE1":"1 52535U 22051C   23165.74356811  .00002399  00000-0  16875-3 0  9995","PERIOD":"95.437","DECAY_DATE":null,"GP_ID":"233947263","OBJECT_ID":"2022-051C","CENTER_NAME":"EARTH"},{"CLASSIFICATION_TYPE":"U","ELEMENT_SET_NO":"999","INCLINATION":"53.2170","LAUNCH_DATE":"2022-05-13","OBJECT_TYPE":"PAYLOAD","REF_FRAME":"TEME","EPHEMERIS_TYPE":"0","SITE":"AFWTR","RA_OF_ASC_NODE":"293.5748","OBJECT_NAME":"STARLINK-3964","TIME_SYSTEM":"UTC","PERIAPSIS":"538.862","TLE_LINE1":"1 52536U 22051D   23165.73988594  .00003059  00000-0  21020-3 0  9996","PERIOD":"95.437","DECAY_DATE":null,"CENTER_NAME":"EARTH","OBJECT_ID":"2022-051D","GP_ID":"233947514","SEMIMAJOR_AXIS":"6917.874","MEAN_MOTION_DOT":"0.00003059","MEAN_ELEMENT_THEORY":"SGP4","TLE_LINE2":"2 52536  53.2170 293.5748 0001269  79.0333 281.0802 15.08841936 60633","ECCENTRICITY":"0.00012690","BSTAR":"0.00021020000000","MEAN_ANOMALY":"281.0802","MEAN_MOTION_DDOT":"0.0000000000000","EPOCH":"2023-06-14T17:45:26.145216","ARG_OF_PERICENTER":"79.0333","COUNTRY_CODE":"US","FILE":"3933215","APOAPSIS":"540.617","MEAN_MOTION":"15.08841936","NORAD_CAT_ID":"52536","RCS_SIZE":"LARGE","REV_AT_EPOCH":"6063"},{"MEAN_ANOMALY":"268.7274","MEAN_MOTION_DDOT":"0.0000000000000","BSTAR":"0.00007633300000","ECCENTRICITY":"0.00012260","MEAN_MOTION_DOT":"0.00000927","SEMIMAJOR_AXIS":"6917.869","TLE_LINE2":"2 52537  53.2175 293.6010 0001226  91.3858 268.7274 15.08843708 60638","MEAN_ELEMENT_THEORY":"SGP4","NORAD_CAT_ID":"52537","RCS_SIZE":"LARGE","REV_AT_EPOCH":"6063","COUNTRY_CODE":"US","MEAN_MOTION":"15.08843708","APOAPSIS":"540.582","FILE":"3933215","ARG_OF_PERICENTER":"91.3858","EPOCH":"2023-06-14T17:41:30.930720","TIME_SYSTEM":"UTC","OBJECT_NAME":"STARLINK-3897","PERIAPSIS":"538.886","SITE":"AFWTR","RA_OF_ASC_NODE":"293.6010","REF_FRAME":"TEME","EPHEMERIS_TYPE":"0","ELEMENT_SET_NO":"999","CLASSIFICATION_TYPE":"U","LAUNCH_DATE":"2022-05-13","INCLINATION":"53.2175","OBJECT_TYPE":"PAYLOAD","DECAY_DATE":null,"OBJECT_ID":"2022-051E","GP_ID":"233948264","CENTER_NAME":"EARTH","TLE_LINE1":"1 52537U 22051E   23165.73716355  .00000927  00000-0  76333-4 0  9990","PERIOD":"95.437"}];
